{"type": "FeatureCollection", "features": [ {"type": "Feature", "properties": {"norad_id": 66957, "name": "HULIANWANG DIGUI-118", "group": "last-30-days", "lat": 30.219543225736206, "lon": 161.97895643624264, "alt_km": 997.8392158841834, "timestamp": "2025-12-18T13:51:48.381791+00:00", "meta": {"OBJECT_NAME": "HULIANWANG DIGUI-118", "OBJECT_ID": "2025-287E", "EPOCH": "2025-12-17T14:19:24.841920", "MEAN_MOTION": 13.68572802, "ECCENTRICITY": 0.00077566, "INCLINATION": 86.4948, "RA_OF_ASC_NODE": 344.3824, "ARG_OF_PERICENTER": 174.8369, "MEAN_ANOMALY": 185.2872, "EPHEMERIS_TYPE": 0, "CLASSIFICATION_TYPE": "U", "NORAD_CAT_ID": 66957, "ELEMENT_SET_NO": 999, "REV_AT_EPOCH": 119, "BSTAR": 0.00015194853, "MEAN_MOTION_DOT": 1.47e-06, "MEAN_MOTION_DDOT": 0}, "tle": {"line1": "1 66957U 25287E   25351.59681530  .00000147  00000+0  15195-3 0  9995", "line2": "2 66957  86.4948 344.3824 0007756 174.8369 185.2872 13.68572802  1191"}}, "geometry": {"type": "Point", "coordinates": [161.97895643624264, 30.219543225736206]}}, {"type": "Feature", "properties": {"norad_id": 66958, "name": "CZ-6A R/B", "group": "last-30-days", "lat": -36.77776063617418, "lon": -18.736409713915755, "alt_km": 957.9313168495028, "timestamp": "2025-12-18T13:51:48.381826+00:00", "meta": {"OBJECT_NAME": "CZ-6A R/B", "OBJECT_ID": "2025-287F", "EPOCH": "2025-12-18T07:09:15.432192", "MEAN_MOTION": 13.9492059, "ECCENTRICITY": 0.01073225, "INCLINATION": 86.5059, "RA_OF_ASC_NODE": 343.9874, "ARG_OF_PERICENTER": 85.4498, "MEAN_ANOMALY": 275.8925, "EPHEMERIS_TYPE": 0, "CLASSIFICATION_TYPE": "U", "NORAD_CAT_ID": 66958, "ELEMENT_SET_NO": 999, "REV_AT_EPOCH": 131, "BSTAR": 3.667809e-05, "MEAN_MOTION_DOT": 7.1e-07, "MEAN_MOTION_DDOT": 0}, "tle": {"line1": "1 66958U 25287F   25352.29809528  .00000071  00000+0  36678-4 0  9999", "line2": "2 66958  86.5059 343.9874 0107322  85.4498 275.8925 13.94920590  1315"}}, "geometry": {"type": "Point", "coordinates": [-18.736409713915755, -36.77776063617418]}}, {"type": "Feature", "properties": {"norad_id": 66959, "name": "STARLINK-35887", "group": "last-30-days", "lat": 6.108358929354858, "lon": -55.138196339213856, "alt_km": 312.94561374800924, "timestamp": "2025-12-18T13:51:48.381837+00:00", "meta": {"OBJECT_NAME": "STARLINK-35887", "OBJECT_ID": "2025-288A", "EPOCH": "2025-12-18T06:00:02.999808", "MEAN_MOTION": 15.86775935, "ECCENTRICITY": 0.00016944, "INCLINATION": 43.001, "RA_OF_ASC_NODE": 133.4778, "ARG_OF_PERICENTER": 273.4956, "MEAN_ANOMALY": 184.2274, "EPHEMERIS_TYPE": 0, "CLASSIFICATION_TYPE": "U", "NORAD_CAT_ID": 66959, "ELEMENT_SET_NO": 999, "REV_AT_EPOCH": 271, "BSTAR": -0.005043866, "MEAN_MOTION_DOT": -0.01191059, "MEAN_MOTION_DDOT": 0}, "tle": {"line1": "1 66959U 25288A   25352.25003472 -.01191059  00000+0 -50439-2 0  9990", "line2": "2 66959  43.0010 133.4778 0001694 273.4956 184.2274 15.86775935  2718"}}, "geometry": {"type": "Point", "coordinates": [-55.138196339213856, 6.108358929354858]}}, {"type": "Feature", "properties": {"norad_id": 66960, "name": "STARLINK-35879", "group": "last-30-days", "lat": 4.864842326672197, "lon": -53.78895884611414, "alt_km": 312.8342716802372, "timestamp": "2025-12-18T13:51:48.381847+00:00", "meta": {"OBJECT_NAME": "STARLINK-35879", "OBJECT_ID": "2025-288B", "EPOCH": "2025-12-18T06:00:02.999808", "MEAN_MOTION": 15.86812723, "ECCENTRICITY": 0.0001457, "INCLINATION": 43.0009, "RA_OF_ASC_NODE": 133.4731, "ARG_OF_PERICENTER": 267.5438, "MEAN_ANOMALY": 191.9708, "EPHEMERIS_TYPE": 0, "CLASSIFICATION_TYPE": "U", "NORAD_CAT_ID": 66960, "ELEMENT_SET_NO": 999, "REV_AT_EPOCH": 271, "BSTAR": -0.0050755268, "MEAN_MOTION_DOT": -0.01199543, "MEAN_MOTION_DDOT": 0}, "tle": {"line1": "1 66960U 25288B   25352.25003472 -.01199543  00000+0 -50755-2 0  9999", "line2": "2 66960  43.0009 133.4731 0001457 267.5438 191.9708 15.86812723  2717"}}, "geometry": {"type": "Point", "coordinates": [-53.78895884611414, 4.864842326672197]}}, {"type": "Feature", "properties": {"norad_id": 66961, "name": "STARLINK-35761", "group": "last-30-days", "lat": 3.5092271713664105, "lon": -52.326537678280786, "alt_km": 312.99922282851367, "timestamp": "2025-12-18T13:51:48.381860+00:00", "meta": {"OBJECT_NAME": "STARLINK-35761", "OBJECT_ID": "2025-288C", "EPOCH": "2025-12-18T06:00:02.999808", "MEAN_MOTION": 15.86840007, "ECCENTRICITY": 0.00016442, "INCLINATION": 43.001, "RA_OF_ASC_NODE": 133.4684, "ARG_OF_PERICENTER": 271.2049, "MEAN_ANOMALY": 190.2726, "EPHEMERIS_TYPE": 0, "CLASSIFICATION_TYPE": "U", "NORAD_CAT_ID": 66961, "ELEMENT_SET_NO": 999, "REV_AT_EPOCH": 271, "BSTAR": -0.0050579716, "MEAN_MOTION_DOT": -0.01197401, "MEAN_MOTION_DDOT": 0}, "tle": {"line1": "1 66961U 25288C   25352.25003472 -.01197401  00000+0 -50580-2 0  9997", "line2": "2 66961  43.0010 133.4684 0001644 271.2049 190.2726 15.86840007  2713"}}, "geometry": {"type": "Point", "coordinates": [-52.326537678280786, 3.5092271713664105]}}, {"type": "Feature", "properties": {"norad_id": 66962, "name": "STARLINK-35874", "group": "last-30-days", "lat": 1.6941756603940303, "lon": -50.37891455875297, "alt_km": 313.1595332093275, "timestamp": "2025-12-18T13:51:48.381870+00:00", "meta": {"OBJECT_NAME": "STARLINK-35874", "OBJECT_ID": "2025-288D", "EPOCH": "2025-12-18T06:00:02.999808", "MEAN_MOTION": 15.8686745, "ECCENTRICITY": 0.00016089, "INCLINATION": 43.001, "RA_OF_ASC_NODE": 133.4617, "ARG_OF_PERICENTER": 271.5215, "MEAN_ANOMALY": 192.598, "EPHEMERIS_TYPE": 0, "CLASSIFICATION_TYPE": "U", "NORAD_CAT_ID": 66962, "ELEMENT_SET_NO": 999, "REV_AT_EPOCH": 271, "BSTAR": -0.0051474593, "MEAN_MOTION_DOT": -0.01217717, "MEAN_MOTION_DDOT": 0}, "tle": {"line1": "1 66962U 25288D   25352.25003472 -.01217717  00000+0 -51475-2 0  9995", "line2": "2 66962  43.0010 133.4617 0001608 271.5215 192.5980 15.86867450  2716"}}, "geometry": {"type": "Point", "coordinates": [-50.37891455875297, 1.6941756603940303]}}, {"type": "Feature", "properties": {"norad_id": 66963, "name": "STARLINK-36133", "group": "last-30-days", "lat": 0.30630675511214894, "lon": -48.893817860726045, "alt_km": 313.15804460541676, "timestamp": "2025-12-18T13:51:48.381880+00:00", "meta": {"OBJECT_NAME": "STARLINK-36133", "OBJECT_ID": "2025-288E", "EPOCH": "2025-12-18T06:00:02.999808", "MEAN_MOTION": 15.86898119, "ECCENTRICITY": 0.00015938, "INCLINATION": 43.001, "RA_OF_ASC_NODE": 133.4567, "ARG_OF_PERICENTER": 268.8278, "MEAN_ANOMALY": 197.2928, "EPHEMERIS_TYPE": 0, "CLASSIFICATION_TYPE": "U", "NORAD_CAT_ID": 66963, "ELEMENT_SET_NO": 999, "REV_AT_EPOCH": 271, "BSTAR": -0.0051552524, "MEAN_MOTION_DOT": -0.01221006, "MEAN_MOTION_DDOT": 0}, "tle": {"line1": "1 66963U 25288E   25352.25003472 -.01221006  00000+0 -51553-2 0  9999", "line2": "2 66963  43.0010 133.4567 0001593 268.8278 197.2928 15.86898119  2712"}}, "geometry": {"type": "Point", "coordinates": [-48.893817860726045, 0.30630675511214894]}}, {"type": "Feature", "properties": {"norad_id": 66964, "name": "STARLINK-36104", "group": "last-30-days", "lat": -1.1303319609434093, "lon": -47.35736185214167, "alt_km": 313.2730083071938, "timestamp": "2025-12-18T13:51:48.381890+00:00", "meta": {"OBJECT_NAME": "STARLINK-36104", "OBJECT_ID": "2025-288F", "EPOCH": "2025-12-18T06:00:02.999808", "MEAN_MOTION": 15.86928951, "ECCENTRICITY": 0.00017109, "INCLINATION": 43.0011, "RA_OF_ASC_NODE": 133.4513, "ARG_OF_PERICENTER": 270.8356, "MEAN_ANOMALY": 197.3596, "EPHEMERIS_TYPE": 0, "CLASSIFICATION_TYPE": "U", "NORAD_CAT_ID": 66964, "ELEMENT_SET_NO": 999, "REV_AT_EPOCH": 271, "BSTAR": -0.0051718717, "MEAN_MOTION_DOT": -0.01226253, "MEAN_MOTION_DDOT": 0}, "tle": {"line1": "1 66964U 25288F   25352.25003472 -.01226253  00000+0 -51719-2 0  9993", "line2": "2 66964  43.0011 133.4513 0001710 270.8356 197.3596 15.86928951  2716"}}, "geometry": {"type": "Point", "coordinates": [-47.35736185214167, -1.1303319609434093]}}, {"type": "Feature", "properties": {"norad_id": 66965, "name": "STARLINK-36067", "group": "last-30-days", "lat": -2.5652347226366583, "lon": -45.82026983848378, "alt_km": 313.37080884082934, "timestamp": "2025-12-18T13:51:48.381900+00:00", "meta": {"OBJECT_NAME": "STARLINK-36067", "OBJECT_ID": "2025-288G", "EPOCH": "2025-12-18T06:00:02.999808", "MEAN_MOTION": 15.86953808, "ECCENTRICITY": 0.00016931, "INCLINATION": 43.0012, "RA_OF_ASC_NODE": 133.446, "ARG_OF_PERICENTER": 272.4914, "MEAN_ANOMALY": 197.7787, "EPHEMERIS_TYPE": 0, "CLASSIFICATION_TYPE": "U", "NORAD_CAT_ID": 66965, "ELEMENT_SET_NO": 999, "REV_AT_EPOCH": 271, "BSTAR": -0.0051507012, "MEAN_MOTION_DOT": -0.01223124, "MEAN_MOTION_DDOT": 0}, "tle": {"line1": "1 66965U 25288G   25352.25003472 -.01223124  00000+0 -51507-2 0  9993", "line2": "2 66965  43.0012 133.4460 0001693 272.4914 197.7787 15.86953808  2712"}}, "geometry": {"type": "Point", "coordinates": [-45.82026983848378, -2.5652347226366583]}}, {"type": "Feature", "properties": {"norad_id": 66966, "name": "STARLINK-36139", "group": "last-30-days", "lat": -4.312682351260988, "lon": -43.940584239214644, "alt_km": 313.4769886209024, "timestamp": "2025-12-18T13:51:48.381913+00:00", "meta": {"OBJECT_NAME": "STARLINK-36139", "OBJECT_ID": "2025-288H", "EPOCH": "2025-12-18T06:00:02.999808", "MEAN_MOTION": 15.86978474, "ECCENTRICITY": 0.00016331, "INCLINATION": 43.0012, "RA_OF_ASC_NODE": 133.4396, "ARG_OF_PERICENTER": 272.181, "MEAN_ANOMALY": 200.6332, "EPHEMERIS_TYPE": 0, "CLASSIFICATION_TYPE": "U", "NORAD_CAT_ID": 66966, "ELEMENT_SET_NO": 999, "REV_AT_EPOCH": 271, "BSTAR": -0.0051966843, "MEAN_MOTION_DOT": -0.01234135, "MEAN_MOTION_DDOT": 0}, "tle": {"line1": "1 66966U 25288H   25352.25003472 -.01234135  00000+0 -51967-2 0  9998", "line2": "2 66966  43.0012 133.4396 0001633 272.1810 200.6332 15.86978474  2713"}}, "geometry": {"type": "Point", "coordinates": [-43.940584239214644, -4.312682351260988]}}]}